ONEWEB-0228             
1 48780U 21045P   24214.50068100  .00000207  00000+0  51951-3 0  9994
2 48780  87.9018  35.4270 0001703  85.7036 274.4289 13.15071624154302
